[{"OBJECT_NAME":"VSP RF A1","OBJECT_ID":"2024-043AP","EPOCH":"2026-03-07T00:44:15.345024","MEAN_MOTION":15.26179596,"ECCENTRICITY":0.00094313,"INCLINATION":97.5247,"RA_OF_ASC_NODE":201.5379,"ARG_OF_PERICENTER":234.6315,"MEAN_ANOMALY":125.4042,"EPHEMERIS_TYPE":0,"CLASSIFICATION_TYPE":"U","NORAD_CAT_ID":59135,"ELEMENT_SET_NO":999,"REV_AT_EPOCH":11140,"BSTAR":2.5198753e-5,"MEAN_MOTION_DOT":5.77e-6,"MEAN_MOTION_DDOT":0},{"OBJECT_NAME":"STARLINK-33627","OBJECT_ID":"2025-035S","EPOCH":"2026-03-09T06:22:30.527904","MEAN_MOTION":15.2758309,"ECCENTRICITY":9.0e-5,"INCLINATION":42.9957,"RA_OF_ASC_NODE":149.5809,"ARG_OF_PERICENTER":209.9613,"MEAN_ANOMALY":150.1187,"EPHEMERIS_TYPE":0,"CLASSIFICATION_TYPE":"U","NORAD_CAT_ID":63068,"ELEMENT_SET_NO":999,"REV_AT_EPOCH":5965,"BSTAR":0.00084013245,"MEAN_MOTION_DOT":0.00022931,"MEAN_MOTION_DDOT":0}]
