VSP RF A1               
1 59135U 24043AP  26066.03073316  .00000577  00000+0  25199-4 0  9997
2 59135  97.5247 201.5379 0009431 234.6315 125.4042 15.26179596111403
STARLINK-33627          
1 63068U 25035S   26068.26563111  .00022931  00000+0  84013-3 0  9990
2 63068  42.9957 149.5809 0000900 209.9613 150.1187 15.27583090 59654
